GLOBALSTAR M001         
1 25162U 98008A   24148.82240230 -.00000105  00000+0 -64781-4 0  9998
2 25162  52.0058  14.8355 0001934 132.2729 309.1235 12.38184619195974
GLOBALSTAR M004         
1 25163U 98008B   24148.73301477 -.00000099  00000+0  28627-4 0  9990
2 25163  51.9970 150.0495 0002886 152.6904  18.6190 12.63360730212961
GLOBALSTAR M002         
1 25164U 98008C   24148.19668716 -.00000091  00000+0 -28574-3 0  9996
2 25164  51.9985 128.0029 0001048 158.6574 201.4289 11.61503199139216
GLOBALSTAR M003         
1 25165U 98008D   24148.77773899  .00000030  00000+0  12749-2 0  9997
2 25165  51.9841 155.9588 0007992 237.7897 293.2742 12.12005576186485
GLOBALSTAR M014         
1 25306U 98023A   24148.00105185 -.00000056  00000+0  40251-3 0  9993
2 25306  51.9858  59.8360 0001391  24.7351 348.3619 11.65468052146149
GLOBALSTAR M006         
1 25307U 98023B   24148.62796535 -.00000061  00000+0  30817-3 0  9990
2 25307  51.9932  96.3141 0003538 125.2427  46.2267 11.58164103172157
GLOBALSTAR M015         
1 25308U 98023C   24148.34131596 -.00000067  00000+0  15909-3 0  9991
2 25308  51.9785 177.8179 0012457 111.4321 261.6409 11.48852665149735
GLOBALSTAR M008         
1 25309U 98023D   24148.50088066 -.00000063  00000+0  26230-3 0  9998
2 25309  51.9964 236.2331 0002805  92.0684 280.9108 12.36043861190157
